CTC2_L_00100016-03
1 53165U 25238KG  26070.40843750  .00000000  00000+0  00000-0 0  9995
2 53165  60.0000 180.0000 0000000   0.0000   0.0000 14.60983543    11
CTC2_L_00100016-04
1 53166U 22888PB  26070.40843750  .00000000  00000+0  00000-0 0  9994
2 53166  60.0000 180.0000 0000000   0.0000  90.0000 14.60983543    11
CTC2_L_00100017-01
1 53167U 23535DG  26070.40843750  .00000000  00000+0  00000-0 0  9995
2 53167  60.0000 192.0000 0000000   0.0000 192.0000 14.60983543    18
CTC2_L_00100017-02
1 53168U 24423RQ  26070.40843750  .00000000  00000+0  00000-0 0  9993
2 53168  60.0000 192.0000 0000000   0.0000 282.0000 14.60983543    19
CTC2_L_00100017-03
1 53169U 26933EV  26070.40843750  .00000000  00000+0  00000-0 0  9992
2 53169  60.0000 192.0000 0000000   0.0000  12.0000 14.60983543    11
CTC2_L_00100017-04
1 53170U 23207PN  26070.40843750  .00000000  00000+0  00000-0 0  9995
2 53170  60.0000 192.0000 0000000   0.0000 102.0000 14.60983543    13
CTC2_L_00100018-01
1 53171U 22547XM  26070.40843750  .00000000  00000+0  00000-0 0  9992
2 53171  60.0000 204.0000 0000000   0.0000 204.0000 14.60983543    11
CTC2_L_00100018-02
1 53172U 25146WH  26070.40843750  .00000000  00000+0  00000-0 0  9991
2 53172  60.0000 204.0000 0000000   0.0000 294.0000 14.60983543    11
CTC2_L_00100018-03
1 53173U 26111CT  26070.40843750  .00000000  00000+0  00000-0 0  9995
2 53173  60.0000 204.0000 0000000   0.0000  24.0000 14.60983543    13
CTC2_L_00100018-04
1 53174U 23627ZD  26070.40843750  .00000000  00000+0  00000-0 0  9995
2 53174  60.0000 204.0000 0000000   0.0000 114.0000 14.60983543    14
CTC2_L_00100019-01
1 53175U 23381PG  26070.40843750  .00000000  00000+0  00000-0 0  9993
2 53175  60.0000 216.0000 0000000   0.0000 216.0000 14.60983543    11
CTC2_L_00100019-02
1 53176U 23480OY  26070.40843750  .00000000  00000+0  00000-0 0  9994
2 53176  60.0000 216.0000 0000000   0.0000 306.0000 14.60983543    12
CTC2_L_00100019-03
1 53177U 23978MO  26070.40843750  .00000000  00000+0  00000-0 0  9997
2 53177  60.0000 216.0000 0000000   0.0000  36.0000 14.60983543    13
CTC2_L_00100019-04
1 53178U 22609QS  26070.40843750  .00000000  00000+0  00000-0 0  9998
2 53178  60.0000 216.0000 0000000   0.0000 126.0000 14.60983543    14
CTC2_L_00100020-01
1 53179U 23586DB  26070.40843750  .00000000  00000+0  00000-0 0  9994
2 53179  60.0000 228.0000 0000000   0.0000 228.0000 14.60983543    11
CTC2_L_00100020-02
1 53180U 25900SQ  26070.40843750  .00000000  00000+0  00000-0 0  9998
2 53180  60.0000 228.0000 0000000   0.0000 318.0000 14.60983543    13
CTC2_L_00100020-03
1 53181U 23431VD  26070.40843750  .00000000  00000+0  00000-0 0  9996
2 53181  60.0000 228.0000 0000000   0.0000  48.0000 14.60983543    14
CTC2_L_00100020-04
1 53182U 24850A   26070.40843750  .00000000  00000+0  00000-0 0  9993
2 53182  60.0000 228.0000 0000000   0.0000 138.0000 14.60983543    15
CTC2_L_00100021-01
1 53183U 23846QL  26070.40843750  .00000000  00000+0  00000-0 0  9998
2 53183  60.0000 240.0000 0000000   0.0000 240.0000 14.60983543    14
CTC2_L_00100021-02
1 53184U 23308JB  26070.40843750  .00000000  00000+0  00000-0 0  9992
2 53184  60.0000 240.0000 0000000   0.0000 330.0000 14.60983543    15
CTC2_L_00100021-03
1 53185U 22616IO  26070.40843750  .00000000  00000+0  00000-0 0  9994
2 53185  60.0000 240.0000 0000000   0.0000  60.0000 14.60983543    16
CTC2_L_00100021-04
1 53186U 23026LT  26070.40843750  .00000000  00000+0  00000-0 0  9991
2 53186  60.0000 240.0000 0000000   0.0000 150.0000 14.60983543    17
CTC2_L_00100022-01
1 53187U 24965TS  26070.40843750  .00000000  00000+0  00000-0 0  9995
2 53187  60.0000 252.0000 0000000   0.0000 252.0000 14.60983543    14
CTC2_L_00100022-02
1 53188U 23594IB  26070.40843750  .00000000  00000+0  00000-0 0  9993
2 53188  60.0000 252.0000 0000000   0.0000 342.0000 14.60983543    15
CTC2_L_00100022-03
1 53189U 22498CN  26070.40843750  .00000000  00000+0  00000-0 0  9996
2 53189  60.0000 252.0000 0000000   0.0000  72.0000 14.60983543    16
CTC2_L_00100022-04
1 53190U 26935SY  26070.40843750  .00000000  00000+0  00000-0 0  9998
2 53190  60.0000 252.0000 0000000   0.0000 162.0000 14.60983543    18
CTC2_L_00100023-01
1 53191U 26893CO  26070.40843750  .00000000  00000+0  00000-0 0  9992
2 53191  60.0000 264.0000 0000000   0.0000 264.0000 14.60983543    15
CTC2_L_00100023-02
1 53192U 22832UY  26070.40843750  .00000000  00000+0  00000-0 0  9992
2 53192  60.0000 264.0000 0000000   0.0000 354.0000 14.60983543    16
CTC2_L_00100023-03
1 53193U 22734DL  26070.40843750  .00000000  00000+0  00000-0 0  9994
2 53193  60.0000 264.0000 0000000   0.0000  84.0000 14.60983543    17
CTC2_L_00100023-04
1 53194U 22383PF  26070.40843750  .00000000  00000+0  00000-0 0  9995
2 53194  60.0000 264.0000 0000000   0.0000 174.0000 14.60983543    18
CTC2_L_00100024-01
1 53195U 22313SF  26070.40843750  .00000000  00000+0  00000-0 0  9999
2 53195  60.0000 276.0000 0000000   0.0000 276.0000 14.60983543    15
CTC2_L_00100024-02
1 53196U 23090UV  26070.40843750  .00000000  00000+0  00000-0 0  9993
2 53196  60.0000 276.0000 0000000   0.0000   6.0000 14.60983543    17
CTC2_L_00100024-03
1 53197U 25508QC  26070.40843750  .00000000  00000+0  00000-0 0  9990
2 53197  60.0000 276.0000 0000000   0.0000  96.0000 14.60983543    17
CTC2_L_00100024-04
1 53198U 25598R   26070.40843750  .00000000  00000+0  00000-0 0  9990
2 53198  60.0000 276.0000 0000000   0.0000 186.0000 14.60983543    18
CTC2_L_00100025-01
1 53199U 25917MS  26070.40843750  .00000000  00000+0  00000-0 0  9996
2 53199  60.0000 288.0000 0000000   0.0000 288.0000 14.60983543    15
CTC2_L_00100025-02
1 53200U 22296AW  26070.40843750  .00000000  00000+0  00000-0 0  9996
2 53200  60.0000 288.0000 0000000   0.0000  18.0000 14.60983543    19
CTC2_L_00100025-03
1 53201U 22634NS  26070.40843750  .00000000  00000+0  00000-0 0  9993
2 53201  60.0000 288.0000 0000000   0.0000 108.0000 14.60983543    10
CTC2_L_00100025-04
1 53202U 25879UF  26070.40843750  .00000000  00000+0  00000-0 0  9998
2 53202  60.0000 288.0000 0000000   0.0000 198.0000 14.60983543    10
CTC2_L_00100026-01
1 53203U 26555GT  26070.40843750  .00000000  00000+0  00000-0 0  9991
2 53203  60.0000 300.0000 0000000   0.0000 300.0000 14.60983543    11
CTC2_L_00100026-02
1 53204U 22628BH  26070.40843750  .00000000  00000+0  00000-0 0  9999
2 53204  60.0000 300.0000 0000000   0.0000  30.0000 14.60983543    12
CTC2_L_00100026-03
1 53205U 22297MI  26070.40843750  .00000000  00000+0  00000-0 0  9992
2 53205  60.0000 300.0000 0000000   0.0000 120.0000 14.60983543    13
CTC2_L_00100026-04
1 53206U 24187WQ  26070.40843750  .00000000  00000+0  00000-0 0  9993
2 53206  60.0000 300.0000 0000000   0.0000 210.0000 14.60983543    14
CTC2_L_00100027-01
1 53207U 25339UB  26070.40843750  .00000000  00000+0  00000-0 0  9994
2 53207  60.0000 312.0000 0000000   0.0000 312.0000 14.60983543    11
CTC2_L_00100027-02
1 53208U 26080DG  26070.40843750  .00000000  00000+0  00000-0 0  9999
2 53208  60.0000 312.0000 0000000   0.0000  42.0000 14.60983543    12
CTC2_L_00100027-03
1 53209U 23819DJ  26070.40843750  .00000000  00000+0  00000-0 0  9997
2 53209  60.0000 312.0000 0000000   0.0000 132.0000 14.60983543    13
CTC2_L_00100027-04
1 53210U 24806QW  26070.40843750  .00000000  00000+0  00000-0 0  9996
2 53210  60.0000 312.0000 0000000   0.0000 222.0000 14.60983543    15
CTC2_L_00100028-01
1 53211U 24510QV  26070.40843750  .00000000  00000+0  00000-0 0  9999
2 53211  60.0000 324.0000 0000000   0.0000 324.0000 14.60983543    12
CTC2_L_00100028-02
1 53212U 26769LR  26070.40843750  .00000000  00000+0  00000-0 0  9998
2 53212  60.0000 324.0000 0000000   0.0000  54.0000 14.60983543    13
CTC2_L_00100028-03
1 53213U 23018MO  26070.40843750  .00000000  00000+0  00000-0 0  9993
2 53213  60.0000 324.0000 0000000   0.0000 144.0000 14.60983543    14
CTC2_L_00100028-04
1 53214U 22878WE  26070.40843750  .00000000  00000+0  00000-0 0  9997
2 53214  60.0000 324.0000 0000000   0.0000 234.0000 14.60983543    15
CTC2_L_00100029-01
1 53215U 22279WI  26070.40843750  .00000000  00000+0  00000-0 0  9993
2 53215  60.0000 336.0000 0000000   0.0000 336.0000 14.60983543    12
CTC2_L_00100029-02
1 53216U 26207IK  26070.40843750  .00000000  00000+0  00000-0 0  9999
2 53216  60.0000 336.0000 0000000   0.0000  66.0000 14.60983543    13
CTC2_L_00100029-03
1 53217U 26617DN  26070.40843750  .00000000  00000+0  00000-0 0  9995
2 53217  60.0000 336.0000 0000000   0.0000 156.0000 14.60983543    14
CTC2_L_00100029-04
1 53218U 24188GQ  26070.40843750  .00000000  00000+0  00000-0 0  9997
2 53218  60.0000 336.0000 0000000   0.0000 246.0000 14.60983543    15
CTC2_L_00100030-01
1 53219U 24358HP  26070.40843750  .00000000  00000+0  00000-0 0  9997
2 53219  60.0000 348.0000 0000000   0.0000 348.0000 14.60983543    12
CTC2_L_00100030-02
1 53220U 24214AA  26070.40843750  .00000000  00000+0  00000-0 0  9990
2 53220  60.0000 348.0000 0000000   0.0000  78.0000 14.60983543    14
CTC2_L_00100030-03
1 53221U 22965TL  26070.40843750  .00000000  00000+0  00000-0 0  9992
2 53221  60.0000 348.0000 0000000   0.0000 168.0000 14.60983543    15
CTC2_L_00100030-04
1 53222U 24276ML  26070.40843750  .00000000  00000+0  00000-0 0  9990
2 53222  60.0000 348.0000 0000000   0.0000 258.0000 14.60983543    16
